COSMOS 2531 (RODNIK-S *)
1 43752U 18097B   26147.95317517 -.00000006  00000+0 -11523-3 0  9996
2 43752  82.5197 235.8880 0018019  99.9558 260.3556 12.42912237339794
COSMOS 2532 (RODNIK-S *)
1 43753U 18097C   26147.98140046  .00000079  00000+0  50034-3 0  9999
2 43753  82.5142 234.6657 0019402 101.8412 258.4845 12.42909261339762
MINXSS-2                
1 43758U 18099A   26147.77047711  .00039009  00000+0  81545-3 0  9994
2 43758  97.4548 223.4789 0006183 346.2474  13.8606 15.45371171410979
SIRION PATHFINDER-2     
1 43759U 18099B   26147.69930603  .00005909  00000+0  32568-3 0  9990
2 43759  97.4267 197.2451 0009047  21.8729 338.2888 15.14330682409526
STPSAT-5                
1 43762U 18099E   26147.66898287  .00005560  00000+0  31419-3 0  9999
2 43762  97.4103 198.0136 0004538  64.5357 295.6344 15.13487680409768
POLAR SCOUT KODIAK      
1 43764U 18099G   26147.78069257  .00151625  00000+0  11618-2 0  9993
2 43764  97.4178 230.1497 0004782 256.0829 103.9902 15.71638672411726
HAWK-A                  
1 43765U 18099H   26147.67258978  .00007927  00000+0  32129-3 0  9998
2 43765  97.3931 200.1784 0034739   0.6896 359.4383 15.24353959409976
SPAWAR-CAL-O            
1 43766U 18099J   26147.65947615  .00022658  00000+0  68303-3 0  9991
2 43766  97.4349 211.4745 0007701  15.7449 344.4032 15.34292387410372
CORVUS BC4              
1 43767U 18099K   26147.67819443  .00005371  00000+0  31355-3 0  9991
2 43767  97.4081 191.2601 0009882  76.4220 283.8111 15.12299269409302
AISTECHSAT 2            
1 43768U 18099L   26147.68452705  .00007036  00000+0  37793-3 0  9999
2 43768  97.4308 196.1690 0005093  30.1983 329.9542 15.15205268409174
FOX-1CLIFF (AO-95)      
1 43770U 18099N   26147.69092025  .00013644  00000+0  52913-3 0  9991
2 43770  97.4401 208.0187 0010017  67.2029 293.0266 15.26198399410094
RANGE-A                 
1 43773U 18099R   26147.67991747  .00005862  00000+0  33342-3 0  9999
2 43773  97.3980 190.8604 0011690  63.8280 296.4152 15.13179548409392
SPAWAR-CAL-R            
1 43776U 18099U   26147.34824859  .00002127  00000+0  15112-3 0  9991
2 43776  97.4391 188.4927 0021622  73.3742 286.9857 15.05550887408865
SPAWAR-CAL-OR           
1 43778U 18099W   26147.09776565  .00010671  00000+0  45675-3 0  9995
2 43778  97.3811 195.6992 0012221  38.9920 321.2195 15.22913594409445
SNUSAT-2                
1 43782U 18099AA  26147.68497362  .00010135  00000+0  45296-3 0  9994
2 43782  97.4077 201.3873 0010360  17.8041 342.3556 15.21476291409914
KAZSTSAT                
1 43783U 18099AB  26147.68247938  .00001093  00000+0  92789-4 0  9990
2 43783  97.4273 180.5448 0006623 123.6953 236.4903 14.99808174408230
SNUGLITE                
1 43784U 18099AC  26147.69752535  .00014254  00000+0  54565-3 0  9998
2 43784  97.3887 202.1850 0003024  36.3291 323.8153 15.26659186410190
ITASAT                  
1 43786U 18099AE  26147.92880920  .00008261  00000+0  39967-3 0  9996
2 43786  97.4045 199.8472 0014076  67.8086 292.4641 15.18754711409834
EAGLET-I                
1 43790U 18099AJ  26147.68107766  .00005345  00000+0  30789-3 0  9997
2 43790  97.4249 197.8940 0012500  61.8712 298.3781 15.12756592409230
ESEO                    
1 43792U 18099AL  26147.69158755  .00001441  00000+0  10782-3 0  9998
2 43792  97.3989 185.9578 0013546  50.1731 310.0685 15.04176345408721
HAWK-B                  
1 43794U 18099AN  26147.66978763  .00007377  00000+0  31631-3 0  9996
2 43794  97.3979 199.6331 0032460  18.7184 341.5238 15.22554055409912
THEA                    
1 43796U 18099AQ  26147.72822077  .00021651  00000+0  65449-3 0  9996
2 43796  97.4456 217.2317 0006935  10.3864 349.7521 15.34219736409559
SKYSAT-C12              
1 43797U 18099AR  26147.80403954  .00019636  00000+0  37485-3 0  9994
2 43797  96.9271 171.8706 0003222 192.9107 167.2063 15.48158493418707
ASTROCAST 0.1           
1 43798U 18099AS  26147.78091031  .00039087  00000+0  74671-3 0  9991
2 43798  97.4388 225.6637 0003516 288.1313  71.9554 15.48008862411272
HAWK-C                  
1 43799U 18099AT  26147.95721847  .00010325  00000+0  37427-3 0  9998
2 43799  97.3909 201.2726 0040397 359.6562   0.4643 15.27763887410826
ICEYE-X2                
1 43800U 18099AU  26147.96529038  .00005998  00000+0  30275-3 0  9994
2 43800  97.4375 202.1654 0010540  22.9034 337.2668 15.17430399409754
SKYSAT-C13              
1 43802U 18099AW  26147.64925600  .00304417  40042-4  63378-3 0  9999
2 43802  96.9160 196.4545 0004216 207.3078 152.7980 15.99074826419685
JY1SAT (JO-97)          
1 43803U 18099AX  26147.73445052  .00019686  00000+0  62080-3 0  9993
2 43803  97.4144 210.5072 0004871 359.9431   0.1810 15.32904545410496
SUOMI-100               
1 43804U 18099AY  26147.71109505  .00015047  00000+0  55446-3 0  9997
2 43804  97.4207 208.1867 0009481   2.5342 357.5944 15.27874318410299
EUCROPIS                
1 43807U 18099BB  26147.66451837  .00008988  00000+0  41736-3 0  9995
2 43807  97.4237 203.7478 0005662  29.1358 331.0193 15.20228672409349
POLAR SCOUT YUKON       
1 43808U 18099BC  26147.76629965  .00025355  00000+0  69998-3 0  9993
2 43808  97.4693 220.2194 0005380  56.3472 303.8285 15.37046885410377
CENTAURI-1              
1 43809U 18099BD  26147.68197851  .00006864  00000+0  35852-3 0  9995
2 43809  97.4235 199.8436 0015160  45.2050 315.0413 15.16121549409392
NEXTSAT-1               
1 43811U 18099BF  26147.82939046  .00002813  00000+0  18396-3 0  9998
2 43811  97.4081 191.2594 0013504  52.5339 307.7116 15.08496199408817
GLOBAL-2                
1 43812U 18099BG  26147.64571104  .00004073  00000+0  26473-3 0  9991
2 43812  97.3572 185.0140 0004963 210.2703 149.8240 15.08532184408815
FALCONSAT-6             
1 43815U 18099BK  26147.76154891  .00004250  00000+0  16189-3 0  9997
2 43815  97.3807 223.9883 0015847  21.1912  97.5497 15.27150712410617
EXCITE                  
1 43819U 18099BP  26147.62024369  .00002293  00000+0  15901-3 0  9998
2 43819  97.3978 187.2010 0019977  64.7388 295.5907 15.06399764408658
SEAHAWK-1               
1 43820U 18099BQ  26147.69802639  .00010775  00000+0  46842-3 0  9993
2 43820  97.3976 200.4999 0008785  32.9147 327.2635 15.22415496409412
GEO-KOMPSAT-2A          
1 43823U 18100A   26147.96189693  .00000000  00000+0  00000+0 0  9999
2 43823   0.0203  64.3551 0002564  17.0961 278.5976  1.00268141 27424
GSAT-11                 
1 43824U 18100B   26147.95115022 -.00000069  00000+0  00000+0 0  9990
2 43824   0.0744 260.4921 0007862 180.7986 220.6257  1.00272195 27273
SAUDISAT 5A             
1 43831U 18102A   26147.99389845  .00006783  00000+0  25217-3 0  9999
2 43831  97.3084 209.9660 0009228 195.5610 164.5347 15.27806784412591
SAUDISAT 5B             
1 43833U 18102C   26147.95072719  .00006092  00000+0  22490-3 0  9999
2 43833  97.3190 212.9566 0009884 198.8877 161.1997 15.28074928412704
GSAT-7A                 
1 43864U 18105A   26147.94894399  .00000034  00000+0  00000+0 0  9990
2 43864   0.0409 260.5877 0002835 141.0533 248.2470  1.00273648 27243
COSMOS 2533             
1 43867U 18107A   26147.87902449 -.00000032  00000+0  00000+0 0  9992
2 43867   0.0327  99.8134 0000463  28.5799 143.4819  1.00274042 27244
HONGYUN 1               
1 43871U 18108A   26147.96057534 -.00000131  00000+0 -13356-3 0  9997
2 43871  99.7559 170.1335 0014644 104.5992 255.6768 13.51209450366350
NAVSTAR 77 (USA 289)    
1 43873U 18109A   26147.31437646 -.00000026  00000+0  00000+0 0  9995
2 43873  55.6703  93.0096 0038079 198.4622 334.2506  2.00560829 54654
TJS-3                   
1 43874U 18110A   26147.69142230 -.00000211  00000+0  00000+0 0  9997
2 43874   2.4940  80.7325 0001489  45.6640 155.8851  1.00268273 27213
KANOPUS-V 5             
1 43876U 18111A   26147.95649126  .00002978  00000+0  13009-3 0  9993
2 43876  97.3600  53.8758 0001903  80.9237 279.2215 15.22871063411709
KANOPUS-V 6             
1 43877U 18111B   26147.94961590  .00007889  00000+0  19333-3 0  9997
2 43877  97.3722  64.8075 0002428  77.0973 283.0545 15.41011451412401
ISAT                    
1 43879U 18111D   26147.80911983  .00091091  00000+0  10570-2 0  9996
2 43879  97.5900  81.5203 0005611  56.0057 304.1732 15.61465379407983
UWE-4                   
1 43880U 18111E   26147.75479861  .00037489  00000+0  80158-3 0  9997
2 43880  97.5857  75.2249 0009442  51.7759 308.4338 15.44686892407629
D-STAR ONE (SPARROW)    
1 43881U 18111F   26147.81881555  .00133039  00000+0  11600-2 0  9995
2 43881  97.6132  86.8166 0006313  91.7026 268.4958 15.68552217408171
GRUS-1A                 
1 43890U 18111Q   26147.94113828  .00000743  00000+0  65866-4 0  9990
2 43890  97.4563  15.9444 0007464 221.0862 138.9801 14.99003641404677
YUNHAI-2 01A            
1 43909U 18112A   26147.96326367  .00000412  00000+0  22518-3 0  9997
2 43909  50.0078 130.0559 0000245 266.4500  93.6388 14.29013402388196
YUNHAI-2 01B            
1 43910U 18112B   26147.91374964  .00000043  00000+0  80321-4 0  9997
2 43910  50.0101 193.9088 0004921 158.0048 202.1079 14.29005186387348
YUNHAI-2 01C            
1 43911U 18112C   26147.94058259  .00000144  00000+0  12020-3 0  9999
2 43911  50.0114  73.3753 0000644  48.0735 312.0235 14.28988948388893
YUNHAI-2 01D            
1 43912U 18112D   26147.98476025  .00000020  00000+0  71088-4 0  9992
2 43912  50.0129  13.1889 0015327 275.1391  84.7775 14.29022661384695
YUNHAI-2 01E            
1 43913U 18112E   26147.94157432  .00000030  00000+0  75145-4 0  9996
2 43913  50.0091 252.6869 0005060 291.2263  68.8111 14.29002395386266
HONGYAN 1 (CHONGQING)   
1 43914U 18112F   26147.71297957 -.00000098  00000+0  53773-4 0  9997
2 43914  50.0087 312.3187 0006722 193.4068 166.6633 13.43819519363788
YUNHAI-2 01F            
1 43915U 18112G   26147.89157064  .00000137  00000+0  11700-3 0  9997
2 43915  50.0123 313.8023 0006970 254.5940 105.4205 14.29020702385400
